NORAD_CAT_ID,OBJECT_NAME,OBJECT_TYPE,EPOCH,MEAN_MOTION,ECCENTRICITY,INCLINATION,RA_OF_ASC_NODE,ARG_OF_PERICENTER,MEAN_ANOMALY,BSTAR,MEAN_MOTION_DOT,MEAN_MOTION_DDOT,TLE_LINE0,TLE_LINE1,TLE_LINE2,SEMIMAJOR_AXIS,PERIOD,APOGEE,PERIGEE,DECAYED
53561.0,STARLINK-4563,PAYLOAD,2022-11-12 19:00:51,15.08844256,0.0001824,53.2234,109.0211,50.6166,309.4988,0.00014979,2.097e-05,0.0,0 STARLINK-4563,1 53561U 22101AL  22316.79226107  .00002097  00000-0  14979-3 0  9995,2 53561  53.2234 109.0211 0001824  50.6166 309.4988 15.08844256 13204,6917.8669999999975,95.437,540.994,538.471,0.0
53561.0,STARLINK-4563,PAYLOAD,2022-11-13 02:57:46,15.08847295,0.0001892,53.2235,107.5348,49.4092,310.7064,0.00014032,1.946e-05,0.0,0 STARLINK-4563,1 53561U 22101AL  22317.12345868  .00001946  00000-0  14032-3 0  9991,2 53561  53.2235 107.5348 0001892  49.4092 310.7064 15.08847295 13259,6917.858,95.437,541.0319999999998,538.414,0.0
53561.0,STARLINK-4563,PAYLOAD,2022-11-13 10:54:42,15.0884414,0.0001385999999999,53.2224,106.0464,62.0581,298.0551,4.2859e-05,3.94e-06,0.0,0 STARLINK-4563,1 53561U 22101AL  22317.45466323  .00000394  00000-0  42859-4 0  9992,2 53561  53.2224 106.0464 0001386  62.0581 298.0551 15.08844140 13303,6917.868,95.437,540.692,538.774,0.0
53561.0,STARLINK-4563,PAYLOAD,2022-11-13 17:16:15,15.08843524,0.0001474,53.2219,104.8575,57.0631,303.0503,3.4553e-05,2.62e-06,0.0,0 STARLINK-4563,1 53561U 22101AL  22317.71962329  .00000262  00000-0  34553-4 0  9994,2 53561  53.2219 104.8575 0001474  57.0631 303.0503 15.08843524 13347,6917.87,95.437,540.754,538.715,0.0
53561.0,STARLINK-4563,PAYLOAD,2022-11-14 09:10:07,15.08830204,0.0001496999999999,53.2222,101.8838,57.029,303.0846,-1.9886000000000003e-06,-3.2e-06,0.0,0 STARLINK-4563,1 53561U 22101AL  22318.38203403 -.00000320  00000-0 -19886-5 0  9999,2 53561  53.2222 101.8838 0001497  57.0290 303.0846 15.08830204 13448,6917.91,95.438,540.811,538.74,0.0
53561.0,STARLINK-4563,PAYLOAD,2022-11-14 17:07:02,15.08873005,0.0001464,53.2222,100.3982,78.2591,281.8565,-0.00050275,-8.288e-05,0.0,0 STARLINK-4563,1 53561U 22101AL  22318.71321978 -.00008288  00000-0 -50275-3 0  9990,2 53561  53.2222 100.3982 0001464  78.2591 281.8565 15.08873005 13497,6917.78,95.435,540.6569999999998,538.632,0.0
53561.0,STARLINK-4563,PAYLOAD,2022-11-15 02:39:21,15.0885742,0.0001268,53.2226,98.614,75.4718,284.6415,-0.0001901,-3.313e-05,0.0,0 STARLINK-4563,1 53561U 22101AL  22319.11066048 -.00003313  00000-0 -19010-3 0  9995,2 53561  53.2226  98.6140 0001268  75.4718 284.6415 15.08857420 13553,6917.8269999999975,95.436,540.569,538.815,0.0
53561.0,STARLINK-4563,PAYLOAD,2022-11-15 13:47:03,15.08838204,0.0001506999999999,53.2227,96.5328,67.3838,292.7314,8.924100000000001e-05,1.133e-05,0.0,0 STARLINK-4563,1 53561U 22101AL  22319.57434932  .00001133  00000-0  89241-4 0  9996,2 53561  53.2227  96.5328 0001507  67.3838 292.7314 15.08838204 13623,6917.886,95.438,540.793,538.7080000000002,0.0
53561.0,STARLINK-4563,PAYLOAD,2022-11-15 16:57:50,15.08834827,0.0001486,53.2225,95.9381,67.0279,293.087,8.0025e-05,9.86e-06,0.0,0 STARLINK-4563,1 53561U 22101AL  22319.70683249  .00000986  00000-0  80025-4 0  9994,2 53561  53.2225  95.9381 0001486  67.0279 293.0870 15.08834827 13645,6917.896,95.438,540.789,538.7330000000002,0.0
53561.0,STARLINK-4563,PAYLOAD,2022-11-16 08:51:41,15.08836622,0.0001458,53.2226,92.9651,60.97,299.1438,0.00012634,1.723e-05,0.0,0 STARLINK-4563,1 53561U 22101AL  22320.36923286  .00001723  00000-0  12634-3 0  9996,2 53561  53.2226  92.9651 0001458  60.9700 299.1438 15.08836622 13746,6917.891,95.438,540.764,538.747,0.0
53561.0,STARLINK-4563,PAYLOAD,2022-11-16 16:48:36,15.08846837,0.0001496999999999,53.2225,91.4785,61.6817,298.4326,0.00017249,2.459e-05,0.0,0 STARLINK-4563,1 53561U 22101AL  22320.70042581  .00002459  00000-0  17249-3 0  9998,2 53561  53.2225  91.4785 0001497  61.6817 298.4326 15.08846837 13799,6917.859,95.437,540.76,538.689,0.0
53561.0,STARLINK-4563,PAYLOAD,2022-11-17 02:20:56,15.08837255,0.0001587,53.2223,89.6953,59.3692,300.7456,2.5756e-05,1.22e-06,0.0,0 STARLINK-4563,1 53561U 22101AL  22321.09787495  .00000122  00000-0  25756-4 0  9999,2 53561  53.2223  89.6953 0001587  59.3692 300.7456 15.08837255 13850,6917.889,95.438,540.852,538.656,0.0
53561.0,STARLINK-4563,PAYLOAD,2022-11-17 16:39:23,15.08845583,0.00016,53.2219,87.0195,58.0136,302.1012,0.0001575999999999,2.221e-05,0.0,0 STARLINK-4563,1 53561U 22101AL  22321.69402716  .00002221  00000-0  15760-3 0  9990,2 53561  53.2219  87.0195 0001600  58.0136 302.1012 15.08845583 13947,6917.863,95.437,540.835,538.621,0.0
53561.0,STARLINK-4563,PAYLOAD,2022-11-18 16:30:11,15.08842169,0.0001639,53.2234,82.5581,61.9997,298.1161,2.0409e-06,-2.56e-06,0.0,0 STARLINK-4563,1 53561U 22101AL  22322.68763267 -.00000256  00000-0  20409-5 0  9996,2 53561  53.2234  82.5581 0001639  61.9997 298.1161 15.08842169 14096,6917.874,95.437,540.873,538.605,0.0
53561.0,STARLINK-4563,PAYLOAD,2022-11-19 08:24:02,15.08841089,0.0001416999999999,53.223,79.586,58.8936,301.2195,5.5547e-05,5.96e-06,0.0,0 STARLINK-4563,1 53561U 22101AL  22323.35003185  .00000596  00000-0  55547-4 0  9993,2 53561  53.2230  79.5860 0001417  58.8936 301.2195 15.08841089 14194,6917.877,95.437,540.722,538.762,0.0
53561.0,STARLINK-4563,PAYLOAD,2022-11-19 17:56:21,15.08846712,0.000143,53.2225,77.8031,54.3665,305.746,2.7841e-05,1.55e-06,0.0,0 STARLINK-4563,1 53561U 22101AL  22323.74746755  .00000155  00000-0  27841-4 0  9990,2 53561  53.2225  77.8031 0001430  54.3665 305.7460 15.08846712 14253,6917.86,95.437,540.714,538.736,0.0
53561.0,STARLINK-4563,PAYLOAD,2022-11-20 00:17:54,15.08838826,0.0001111,53.222,76.6111,47.3571,312.7515,4.1345e-05,3.700000000000001e-06,0.0,0 STARLINK-4563,1 53561U 22101AL  22324.01243063  .00000370  00000-0  41345-4 0  9999,2 53561  53.2220  76.6111 0001111  47.3571 312.7515 15.08838826 14298,6917.884,95.438,540.518,538.98,0.0
53561.0,STARLINK-4563,PAYLOAD,2022-11-20 13:00:59,15.08839978,0.0001375,53.2212,74.2339,54.4706,305.6415,0.00014623,2.04e-05,0.0,0 STARLINK-4563,1 53561U 22101AL  22324.54234995  .00002040  00000-0  14623-3 0  9995,2 53561  53.2212  74.2339 0001375  54.4706 305.6415 15.08839978 14374,6917.88,95.438,540.697,538.794,0.0
53561.0,STARLINK-4563,PAYLOAD,2022-11-21 08:05:37,15.08835217,0.0001544,53.2209,70.6645,57.5525,302.5616,-1.8139e-05,-5.77e-06,0.0,0 STARLINK-4563,1 53561U 22101AL  22325.33724087 -.00000577  00000-0 -18139-4 0  9991,2 53561  53.2209  70.6645 0001544  57.5525 302.5616 15.08835217 14495,6917.895,95.438,540.828,538.692,0.0
53561.0,STARLINK-4563,PAYLOAD,2022-11-21 11:16:24,15.08832928,0.0001568,53.221,70.0703,53.2598,306.8537,-4.0819e-05,-9.37e-06,0.0,0 STARLINK-4563,1 53561U 22101AL  22325.46972334 -.00000937  00000-0 -40819-4 0  9995,2 53561  53.2210  70.0703 0001568  53.2598 306.8537 15.08832928 14513,6917.901999999999,95.438,540.852,538.682,0.0
53561.0,STARLINK-4563,PAYLOAD,2022-11-21 16:02:33,15.08832707,0.0001602,53.2212,69.1788,51.5573,308.5563,-3.1461e-05,-7.89e-06,0.0,0 STARLINK-4563,1 53561U 22101AL  22325.66844401 -.00000789  00000-0 -31461-4 0  9998,2 53561  53.2212  69.1788 0001602  51.5573 308.5563 15.08832707 14546,6917.903,95.438,540.876,538.659,0.0
53561.0,STARLINK-4563,PAYLOAD,2022-11-22 14:17:56,15.08846668,0.0001609,53.221,65.0158,50.6782,309.4353,9.8229e-05,1.276e-05,0.0,0 STARLINK-4563,1 53561U 22101AL  22326.59579331  .00001276  00000-0  98229-4 0  9993,2 53561  53.2210  65.0158 0001609  50.6782 309.4353 15.08846668 14682,6917.86,95.437,540.8380000000002,538.612,0.0
53561.0,STARLINK-4563,PAYLOAD,2022-11-23 10:57:58,15.08829904,0.000159,53.2212,61.1497,52.5456,307.568,7.810300000000001e-05,9.55e-06,0.0,0 STARLINK-4563,1 53561U 22101AL  22327.45692659  .00000955  00000-0  78103-4 0  9990,2 53561  53.2212  61.1497 0001590  52.5456 307.5680 15.08829904 14816,6917.911,95.438,540.876,538.6759999999998,0.0
53561.0,STARLINK-4563,PAYLOAD,2022-11-24 10:48:44,15.0884536,0.0001740999999999,53.2231,56.6923,47.1286,312.9853,7.2544e-05,8.67e-06,0.0,0 STARLINK-4563,1 53561U 22101AL  22328.45052043  .00000867  00000-0  72544-4 0  9993,2 53561  53.2231  56.6923 0001741  47.1286 312.9853 15.08845360 14961,6917.864000000001,95.437,540.933,538.525,0.0
53561.0,STARLINK-4563,PAYLOAD,2022-11-24 12:24:08,15.08842478,0.0001607,53.2214,56.3929,52.2299,307.8838,0.00015041,2.107e-05,0.0,0 STARLINK-4563,1 53561U 22101AL  22328.51675997  .00002107  00000-0  15041-3 0  9996,2 53561  53.2214  56.3929 0001607  52.2299 307.8838 15.08842478 14971,6917.873000000001,95.437,540.85,538.626,0.0
53561.0,STARLINK-4563,PAYLOAD,2022-11-25 12:14:54,15.08843612,0.0001652,53.2213,51.9331,50.4721,309.6417,0.00016433,2.329e-05,0.0,0 STARLINK-4563,1 53561U 22101AL  22329.51035548  .00002329  00000-0  16433-3 0  9991,2 53561  53.2213  51.9331 0001652  50.4721 309.6417 15.08843612 15120,6917.869000000002,95.437,540.877,538.592,0.0
53561.0,STARLINK-4563,PAYLOAD,2022-11-26 08:54:54,15.08852448,0.0001712,53.2211,48.0677,52.1441,307.9706,0.00010727,1.42e-05,0.0,0 STARLINK-4563,1 53561U 22101AL  22330.37146760  .00001420  00000-0  10727-3 0  9997,2 53561  53.2211  48.0677 0001712  52.1441 307.9706 15.08852448 15256,6917.842,95.437,540.8919999999998,538.523,0.0
53561.0,STARLINK-4563,PAYLOAD,2022-11-26 12:05:40,15.08852706,0.0001754999999999,53.2213,47.4737,49.1418,310.9726,0.00011358,1.521e-05,0.0,0 STARLINK-4563,1 53561U 22101AL  22330.50394670  .00001521  00000-0  11358-3 0  9990,2 53561  53.2213  47.4737 0001755  49.1418 310.9726 15.08852706 15270,6917.842,95.437,540.9209999999998,538.492,0.0
53561.0,STARLINK-4563,PAYLOAD,2022-11-26 15:16:27,15.08851182,0.0001737,53.2214,46.8793,46.4848,313.6288,5.4911e-05,5.86e-06,0.0,0 STARLINK-4563,1 53561U 22101AL  22330.63642798  .00000586  00000-0  54911-4 0  9994,2 53561  53.2214  46.8793 0001737  46.4848 313.6288 15.08851182 15295,6917.846,95.437,540.913,538.51,0.0
